[{"OBJECT_NAME":"LEMUR-2-DEMBITZ","OBJECT_ID":"2017-042T","EPOCH":"2026-03-09T11:23:53.232288","MEAN_MOTION":15.26947128,"ECCENTRICITY":0.00069617,"INCLINATION":97.3807,"RA_OF_ASC_NODE":250.9241,"ARG_OF_PERICENTER":17.1421,"MEAN_ANOMALY":343.0051,"EPHEMERIS_TYPE":0,"CLASSIFICATION_TYPE":"U","NORAD_CAT_ID":42842,"ELEMENT_SET_NO":999,"REV_AT_EPOCH":47311,"BSTAR":0.00076560825,"MEAN_MOTION_DOT":0.00020231,"MEAN_MOTION_DDOT":0},{"OBJECT_NAME":"STARLINK-32718","OBJECT_ID":"2025-003K","EPOCH":"2026-03-09T00:35:43.188288","MEAN_MOTION":15.27601085,"ECCENTRICITY":0.0001119,"INCLINATION":43.0012,"RA_OF_ASC_NODE":292.4065,"ARG_OF_PERICENTER":295.8828,"MEAN_ANOMALY":64.1909,"EPHEMERIS_TYPE":0,"CLASSIFICATION_TYPE":"U","NORAD_CAT_ID":62496,"ELEMENT_SET_NO":999,"REV_AT_EPOCH":6645,"BSTAR":0.0010063769,"MEAN_MOTION_DOT":0.00027552,"MEAN_MOTION_DDOT":0}]
