LEMUR-2-DEMBITZ         
1 42842U 17042T   26068.47492167  .00020231  00000+0  76561-3 0  9991
2 42842  97.3807 250.9241 0006961  17.1421 343.0051 15.26947128473114
STARLINK-32718          
1 62496U 25003K   26068.02480542  .00027552  00000+0  10064-2 0  9997
2 62496  43.0012 292.4065 0001119 295.8828  64.1909 15.27601085 66456
